*******************************************************************************
Ephemeris / WWW_USER Mon Mar 24 09:16:58 2025 Pasadena, USA      / Horizons    
*******************************************************************************
Target body name: 300163 (2006 VW139)             {source: JPL#20}
Center body name: Earth (399)                     {source: DE441}
Center-site name: Mauna Kea
*******************************************************************************
Start time      : A.D. 2018-Nov-23 03:51:00.0000 UT      
Stop  time      : A.D. 2018-Nov-23 16:25:00.0000 UT      
Step-size       : 1 minutes
*******************************************************************************
Target pole/equ : undefined
Target radii    : undefined                                                    
Center geodetic : 204.5278, 19.8260847, 4.21024   {E-lon(deg),Lat(deg),Alt(km)}
Center cylindric: 204.5278, 6006.35451, 2151.0229 {E-lon(deg),Dxy(km),Dz(km)}
Center pole/equ : ITRF93                          {East-longitude positive}
Center radii    : 6378.137, 6378.137, 6356.752 km {Equator_a, b, pole_c}       
Target primary  : Sun
Vis. interferer : MOON (R_eq= 1737.400) km        {source: DE441}
Rel. light bend : Sun                             {source: DE441}
Rel. lght bnd GM: 1.3271E+11 km^3/s^2                                          
Small-body perts: Yes                             {source: SB441-N16}
Atmos refraction: NO (AIRLESS)
RA format       : HMS
Time format     : CAL 
Calendar mode   : Mixed Julian/Gregorian
RTS-only print  : NO       
EOP file        : eop.250321.p250617                                           
EOP coverage    : DATA-BASED 1962-JAN-20 TO 2025-MAR-21. PREDICTS-> 2025-JUN-16
Units conversion: 1 au= 149597870.700 km, c= 299792.458 km/s, 1 day= 86400.0 s 
Table cut-offs 1: Elevation (-90.0deg=NO ),Airmass (>38.000=NO), Daylight (YES)
Table cut-offs 2: Solar elongation (  0.0,180.0=NO ),Local Hour Angle( 0.0=NO )
Table cut-offs 3: RA/DEC angular rate (     0.0=NO )                           
*******************************************************************************
Initial IAU76/J2000 heliocentric ecliptic osculating elements (au, days, deg.):
  EPOCH=  2457991.5 ! 2017-Aug-26.00 (TDB)         Residual RMS= .24052        
   EC= .2010729135113919   QR= 2.43581750533798    TP= 2457700.5743979034      
   OM= 83.18687361565334   W=  281.0057800900049   IN= 3.240211778004737       
  Equivalent ICRF heliocentric cartesian coordinates (au, au/d):
   X= 5.132894709524352E-01  Y= 2.513143937276953E+00  Z= 1.078150377913554E+00
  VX=-1.001562838274837E-02 VY= 3.317467852193382E-03 VZ= 2.080280624827025E-03
Asteroid physical parameters (km, seconds, rotational period in hours):        
   GM= n.a.                RAD= n.a.               ROTPER= 3240.               
   H= 16.21                G= .150                 B-V= n.a.                   
                           ALBEDO= n.a.            STYP= n.a.                  
*******************************************************************************
 Date__(UT)__HR:MN     R.A._________(ICRF)_________DEC
******************************************************
$$SOE
 2018-Nov-23 16:09 Nm  11 29 00.472639 +06 31 03.73168
 2018-Nov-23 16:10 Nm  11 29 00.504267 +06 31 03.56239
 2018-Nov-23 16:11 Nm  11 29 00.535892 +06 31 03.39311
 2018-Nov-23 16:12 Cm  11 29 00.567516 +06 31 03.22382
 2018-Nov-23 16:13 Cm  11 29 00.599139 +06 31 03.05453
 2018-Nov-23 16:14 Cm  11 29 00.630761 +06 31 02.88524
 2018-Nov-23 16:15 Cm  11 29 00.662381 +06 31 02.71594
 2018-Nov-23 16:16 Cm  11 29 00.694000 +06 31 02.54665
 2018-Nov-23 16:17 Cm  11 29 00.725617 +06 31 02.37735
 2018-Nov-23 16:18 Cm  11 29 00.757233 +06 31 02.20804
 2018-Nov-23 16:19 Cm  11 29 00.788848 +06 31 02.03874
 2018-Nov-23 16:20 Cm  11 29 00.820462 +06 31 01.86943
 2018-Nov-23 16:21 Cm  11 29 00.852074 +06 31 01.70013
 2018-Nov-23 16:22 Cm  11 29 00.883685 +06 31 01.53081
 2018-Nov-23 16:23 Cm  11 29 00.915295 +06 31 01.36150
 2018-Nov-23 16:24 Cm  11 29 00.946903 +06 31 01.19218
 2018-Nov-23 16:25 Cm  11 29 00.978510 +06 31 01.02287
